STARLINK-3584           
1 51885U 22022AK  26068.10011265  .00004308  00000+0  28848-3 0  9990
2 51885  53.2182   1.7687 0001073  82.5729 277.5385 15.08849631223158
LEMUR-2-AHMED-ASRAR     
1 60576U 24149DN  26068.73265438  .00013045  00000+0  79773-3 0  9992
2 60576  97.7021 152.9847 0001633  18.5035 341.6253 15.10376432 85541
